NORAD_CAT_ID,OBJECT_NAME,OBJECT_TYPE,EPOCH,MEAN_MOTION,ECCENTRICITY,INCLINATION,RA_OF_ASC_NODE,ARG_OF_PERICENTER,MEAN_ANOMALY,BSTAR,MEAN_MOTION_DOT,MEAN_MOTION_DDOT,TLE_LINE0,TLE_LINE1,TLE_LINE2,SEMIMAJOR_AXIS,PERIOD,APOGEE,PERIGEE,DECAYED
55311.0,STARLINK-5312,PAYLOAD,2024-01-07 22:38:48,14.98330479,0.0002551,69.9983,200.8374,272.4001,87.6866,3.5083e-05,3.26e-06,0.0,0 STARLINK-5312,1 55311U 23010AU  24007.94361828  .00000326  00000-0  35083-4 0  9999,2 55311  69.9983 200.8374 0002551 272.4001  87.6866 14.98330479 56048,6950.191,96.107,573.829,570.283,0.0
55311.0,STARLINK-5312,PAYLOAD,2024-01-08 14:40:09,14.98332254,0.0002461,69.9985,199.1535,270.2469,89.8408,1.7826e-05,1.2e-06,0.0,0 STARLINK-5312,1 55311U 23010AU  24008.61121688  .00000120  00000-0  17826-4 0  9999,2 55311  69.9985 199.1535 0002461 270.2469  89.8408 14.98332254 56143,6950.186,96.107,573.761,570.34,0.0
55311.0,STARLINK-5312,PAYLOAD,2024-01-08 22:40:49,14.98332519,0.0002481,69.9988,198.3122,271.6089,88.4786,1.8767e-05,1.31e-06,0.0,0 STARLINK-5312,1 55311U 23010AU  24008.94501621  .00000131  00000-0  18767-4 0  9991,2 55311  69.9988 198.3122 0002481 271.6089  88.4786 14.98332519 56197,6950.185,96.107,573.774,570.326,0.0
55311.0,STARLINK-5312,PAYLOAD,2024-01-09 14:42:09,14.98332302,0.0002477,69.999,196.6291,272.8873,87.2003,1.4364e-05,7.8e-07,0.0,0 STARLINK-5312,1 55311U 23010AU  24009.61261526  .00000078  00000-0  14364-4 0  9992,2 55311  69.9990 196.6291 0002477 272.8873  87.2003 14.98332302 56297,6950.186,96.107,573.772,570.329,0.0
55311.0,STARLINK-5312,PAYLOAD,2024-01-09 19:30:34,14.98331896,0.0002478,69.9991,196.1242,272.8312,87.2564,8.8082e-06,1.2e-07,0.0,0 STARLINK-5312,1 55311U 23010AU  24009.81289532  .00000012  00000-0  88082-5 0  9998,2 55311  69.9991 196.1242 0002478 272.8312  87.2564 14.98331896 56321,6950.187,96.107,573.774,570.33,0.0
55311.0,STARLINK-5312,PAYLOAD,2024-01-09 22:42:50,14.98332187,0.0002478,69.9991,195.7876,273.058,87.0296,1.1184e-05,4.1e-07,0.0,0 STARLINK-5312,1 55311U 23010AU  24009.94641483  .00000041  00000-0  11184-4 0  9999,2 55311  69.9991 195.7876 0002478 273.0580  87.0296 14.98332187 55153,6950.186,96.107,573.773,570.329,0.0
55311.0,STARLINK-5312,PAYLOAD,2024-01-10 11:31:54,14.98330634,0.0002399,69.9994,194.4413,270.4953,89.5931,-1.4363e-05,-2.64e-06,0.0,0 STARLINK-5312,1 55311U 23010AU  24010.48049566 -.00000264  00000-0 -14363-4 0  9995,2 55311  69.9994 194.4413 0002399 270.4953  89.5931 14.98330634 56425,6950.191,96.107,573.723,570.389,0.0
55311.0,STARLINK-5312,PAYLOAD,2024-01-11 14:46:11,14.9832913,0.0002425,69.9996,191.5801,267.4661,92.622,-2.1249e-05,-3.46e-06,0.0,0 STARLINK-5312,1 55311U 23010AU  24011.61541592 -.00000346  00000-0 -21249-4 0  9999,2 55311  69.9996 191.5801 0002425 267.4661  92.6220 14.98329130 56591,6950.196,96.107,573.746,570.375,0.0
55311.0,STARLINK-5312,PAYLOAD,2024-01-11 19:34:36,14.9832951,0.0002425,69.9996,191.0751,267.4425,92.6457,-1.5287e-05,-2.75e-06,0.0,0 STARLINK-5312,1 55311U 23010AU  24011.81569555 -.00000275  00000-0 -15287-4 0  9996,2 55311  69.9996 191.0751 0002425 267.4425  92.6457 14.98329510 55434,6950.194,96.107,573.745,570.374,0.0
55311.0,STARLINK-5312,PAYLOAD,2024-01-11 21:10:44,14.98329261,0.0002431,69.9996,190.9068,267.7841,92.304,-1.814e-05,-3.09e-06,0.0,0 STARLINK-5312,1 55311U 23010AU  24011.88245581 -.00000309  00000-0 -18140-4 0  9992,2 55311  69.9996 190.9068 0002431 267.7841  92.3040 14.98329261 56636,6950.195,96.107,573.75,570.371,0.0
55311.0,STARLINK-5312,PAYLOAD,2024-01-12 14:48:13,14.98325587,0.0002416,69.9997,189.0555,265.7894,94.2989,-1.6894e-05,-2.94e-06,0.0,0 STARLINK-5312,1 55311U 23010AU  24012.61681876 -.00000294  00000-0 -16894-4 0  9992,2 55311  69.9997 189.0555 0002416 265.7894  94.2989 14.98325587 56748,6950.207,96.107,573.751,570.392,0.0
55311.0,STARLINK-5312,PAYLOAD,2024-01-12 19:36:37,14.98324948,0.0002433,69.9998,188.5506,266.2691,93.819,-2.3744e-05,-3.76e-06,0.0,0 STARLINK-5312,1 55311U 23010AU  24012.81709992 -.00000376  00000-0 -23744-4 0  9997,2 55311  69.9998 188.5506 0002433 266.2691  93.8190 14.98324948 55589,6950.209,96.107,573.764,570.383,0.0
55311.0,STARLINK-5312,PAYLOAD,2024-01-12 21:12:45,14.98325612,0.000253,69.9995,188.3819,271.2773,88.8096,-2.3419e-05,-3.72e-06,0.0,0 STARLINK-5312,1 55311U 23010AU  24012.88385983 -.00000372  00000-0 -23419-4 0  9999,2 55311  69.9995 188.3819 0002530 271.2773  88.8096 14.98325612 56787,6950.206,96.107,573.83,570.313,0.0
55311.0,STARLINK-5312,PAYLOAD,2024-01-13 14:50:13,14.98331798,0.0002655,69.9992,186.5302,272.5889,87.4967,2.9922e-05,2.64e-06,0.0,0 STARLINK-5312,1 55311U 23010AU  24013.61821472  .00000264  00000-0  29922-4 0  9992,2 55311  69.9992 186.5302 0002655 272.5889  87.4967 14.98331798 56897,6950.187,96.107,573.898,570.207,0.0
55311.0,STARLINK-5312,PAYLOAD,2024-01-13 19:38:37,14.98332943,0.0002647,69.9994,186.0257,273.3351,86.7506,4.3058e-05,4.21e-06,0.0,0 STARLINK-5312,1 55311U 23010AU  24013.81849346  .00000421  00000-0  43058-4 0  9995,2 55311  69.9994 186.0257 0002647 273.3351  86.7506 14.98332943 55733,6950.184,96.107,573.889,570.209,0.0
55311.0,STARLINK-5312,PAYLOAD,2024-01-14 14:52:14,14.98329636,0.0002688,69.9996,184.0063,274.0155,86.0697,3.9591e-05,3.79e-06,0.0,0 STARLINK-5312,1 55311U 23010AU  24014.61961485  .00000379  00000-0  39591-4 0  9992,2 55311  69.9996 184.0063 0002688 274.0155  86.0697 14.98329636 57048,6950.194,96.107,573.927,570.191,0.0
55311.0,STARLINK-5312,PAYLOAD,2024-01-14 19:40:38,14.98332056,0.0002662,69.9996,183.5015,273.5853,86.5002,6.4516e-05,6.77e-06,0.0,0 STARLINK-5312,1 55311U 23010AU  24014.81989246  .00000677  00000-0  64516-4 0  9995,2 55311  69.9996 183.5015 0002662 273.5853  86.5002 14.98332056 55885,6950.187,96.107,573.902,570.201,0.0
55311.0,STARLINK-5312,PAYLOAD,2024-01-14 21:16:46,14.98332783,0.0002663,69.9996,183.3334,273.5833,86.5021,7.0541e-05,7.49e-06,0.0,0 STARLINK-5312,1 55311U 23010AU  24014.88665172  .00000749  00000-0  70541-4 0  9996,2 55311  69.9996 183.3334 0002663 273.5833  86.5021 14.98332783 57088,6950.184,96.107,573.9,570.198,0.0
55311.0,STARLINK-5312,PAYLOAD,2024-01-15 14:54:15,14.98335086,0.0002531,70.0,181.4825,268.2168,91.8701,-2.3474e-06,-1.21e-06,0.0,0 STARLINK-5312,1 55311U 23010AU  24015.62101018 -.00000121  00000-0 -23474-5 0  9993,2 55311  70.0000 181.4825 0002531 268.2168  91.8701 14.98335086 57192,6950.177,96.107,573.801,570.283,0.0
55311.0,STARLINK-5312,PAYLOAD,2024-01-15 19:42:39,14.98335047,0.0002538,70.0001,180.9776,268.796,91.2909,-2.3867e-06,-1.21e-06,0.0,0 STARLINK-5312,1 55311U 23010AU  24015.82128955 -.00000121  00000-0 -23867-5 0  9990,2 55311  70.0001 180.9776 0002538 268.7960  91.2909 14.98335047 57229,6950.177,96.107,573.806,570.278,0.0
55311.0,STARLINK-5312,PAYLOAD,2024-01-15 21:18:47,14.98335004,0.000255,70.0,180.8092,269.8917,90.195,-2.5513e-06,-1.23e-06,0.0,0 STARLINK-5312,1 55311U 23010AU  24015.88804940 -.00000123  00000-0 -25513-5 0  9993,2 55311  70.0000 180.8092 0002550 269.8917  90.1950 14.98335004 56042,6950.177,96.107,573.815,570.27,0.0
55311.0,STARLINK-5312,PAYLOAD,2024-01-16 11:44:00,14.98326508,0.0002417,70.0005,179.2952,260.9189,99.1697,-6.1637e-05,-8.28e-06,0.0,0 STARLINK-5312,1 55311U 23010AU  24016.48889570 -.00000828  00000-0 -61637-4 0  9990,2 55311  70.0005 179.2952 0002417 260.9189  99.1697 14.98326508 56135,6950.204,96.107,573.749,570.389,0.0
55311.0,STARLINK-5312,PAYLOAD,2024-01-16 14:56:16,14.98326277,0.0002423,70.0005,178.9585,260.4372,99.6513,-6.196e-05,-8.32e-06,0.0,0 STARLINK-5312,1 55311U 23010AU  24016.62241600 -.00000832  00000-0 -61960-4 0  9996,2 55311  70.0005 178.9585 0002423 260.4372  99.6513 14.98326277 57348,6950.204,96.107,573.753,570.385,0.0
55311.0,STARLINK-5312,PAYLOAD,2024-01-16 19:44:41,14.98323964,0.000247,70.0005,178.4536,261.047,99.041,-8.7501e-05,-1.137e-05,0.0,0 STARLINK-5312,1 55311U 23010AU  24016.82269874 -.00001137  00000-0 -87501-4 0  9999,2 55311  70.0005 178.4536 0002470 261.0470  99.0410 14.98323964 57370,6950.212,96.107,573.793,570.36,0.0
55311.0,STARLINK-5312,PAYLOAD,2024-01-17 11:46:01,14.9833216,0.0002562,70.0006,176.771,256.3434,103.744,-7.8606e-06,-1.87e-06,0.0,0 STARLINK-5312,1 55311U 23010AU  24017.49029141 -.00000187  00000-0 -78606-5 0  9995,2 55311  70.0006 176.7710 0002562 256.3434 103.7440 14.98332160 56288,6950.186,96.107,573.832,570.271,0.0
55311.0,STARLINK-5312,PAYLOAD,2024-01-17 14:58:17,14.9833241,0.0002555,70.0006,176.4343,257.2675,102.8198,-2.9209e-06,-1.28e-06,0.0,0 STARLINK-5312,1 55311U 23010AU  24017.62381102 -.00000128  00000-0 -29209-5 0  9998,2 55311  70.0006 176.4343 0002555 257.2675 102.8198 14.98332410 57498,6950.185,96.107,573.826,570.275,0.0
55311.0,STARLINK-5312,PAYLOAD,2024-01-17 19:46:41,14.98333235,0.0002547,70.0007,175.9295,256.7984,103.2891,8.5382e-06,9e-08,0.0,0 STARLINK-5312,1 55311U 23010AU  24017.82408993  .00000009  00000-0  85382-5 0  9998,2 55311  70.0007 175.9295 0002547 256.7984 103.2891 14.98333235 57522,6950.183,96.107,573.818,570.278,0.0
55311.0,STARLINK-5312,PAYLOAD,2024-01-18 11:48:02,14.98326957,0.0002629,70.0005,174.2462,258.5728,101.5136,6.5154e-05,6.84e-06,0.0,0 STARLINK-5312,1 55311U 23010AU  24018.49169206  .00000684  00000-0  65154-4 0  9996,2 55311  70.0005 174.2462 0002629 258.5728 101.5136 14.98326957 56430,6950.202,96.107,573.895,570.24,0.0
55311.0,STARLINK-5312,PAYLOAD,2024-01-18 13:24:10,14.9832707,0.0002634,70.0005,174.0777,258.5843,101.502,6.4926e-05,6.82e-06,0.0,0 STARLINK-5312,1 55311U 23010AU  24018.55845207  .00000682  00000-0  64926-4 0  9999,2 55311  70.0005 174.0777 0002634 258.5843 101.5020 14.98327070 57633,6950.202,96.107,573.898,570.236,0.0
55311.0,STARLINK-5312,PAYLOAD,2024-01-18 19:48:42,14.98327874,0.000273,70.0003,173.4035,265.6883,94.3964,6.3324e-05,6.63e-06,0.0,0 STARLINK-5312,1 55311U 23010AU  24018.82549221  .00000663  00000-0  63324-4 0  9996,2 55311  70.0003 173.4035 0002730 265.6883  94.3964 14.98327874 57673,6950.199,96.107,573.962,570.167,0.0
